[{"OBJECT_NAME":"STARLINK-11467 [DTC]","OBJECT_ID":"2024-217M","EPOCH":"2026-03-09T10:15:45.847008","MEAN_MOTION":15.69708704,"ECCENTRICITY":0.00012147,"INCLINATION":53.1579,"RA_OF_ASC_NODE":72.4555,"ARG_OF_PERICENTER":62.0244,"MEAN_ANOMALY":298.0897,"EPHEMERIS_TYPE":0,"CLASSIFICATION_TYPE":"U","NORAD_CAT_ID":62068,"ELEMENT_SET_NO":999,"REV_AT_EPOCH":7513,"BSTAR":0.0013015098,"MEAN_MOTION_DOT":0.00160157,"MEAN_MOTION_DDOT":0},{"OBJECT_NAME":"OBJECT E","OBJECT_ID":"2021-035E","EPOCH":"2026-02-24T23:27:52.334784","MEAN_MOTION":15.69205353,"ECCENTRICITY":0.0007182,"INCLINATION":41.4547,"RA_OF_ASC_NODE":257.9148,"ARG_OF_PERICENTER":354.279,"MEAN_ANOMALY":5.7969,"EPHEMERIS_TYPE":0,"CLASSIFICATION_TYPE":"U","NORAD_CAT_ID":63523,"ELEMENT_SET_NO":999,"REV_AT_EPOCH":5075,"BSTAR":0.00060614223,"MEAN_MOTION_DOT":0.00073106,"MEAN_MOTION_DDOT":0}]
